NORAD_CAT_ID,OBJECT_NAME,OBJECT_TYPE,EPOCH,MEAN_MOTION,ECCENTRICITY,INCLINATION,RA_OF_ASC_NODE,ARG_OF_PERICENTER,MEAN_ANOMALY,BSTAR,MEAN_MOTION_DOT,MEAN_MOTION_DDOT,TLE_LINE0,TLE_LINE1,TLE_LINE2,SEMIMAJOR_AXIS,PERIOD,APOGEE,PERIGEE,DECAYED
53906.0,STARLINK-5054,PAYLOAD,2024-06-16 15:38:06,15.0884265,0.0001481,53.2191,266.6796,82.0865,278.0295,7.3861e-05,8.88e-06,0.0,0 STARLINK-5054,1 53906U 22119W   24168.65146567  .00000888  00000-0  73861-4 0  9992,2 53906  53.2191 266.6796 0001481  82.0865 278.0295 15.08842650 96569,6917.872,95.437,540.762,538.713,0.0
53906.0,STARLINK-5054,PAYLOAD,2024-06-17 12:18:08,15.08834413,0.0001455,53.2181,262.8161,92.55,267.5659,-6.6958e-05,-1.353e-05,0.0,0 STARLINK-5054,1 53906U 22119W   24169.51259671 -.00001353  00000-0 -66958-4 0  9998,2 53906  53.2181 262.8161 0001455  92.5500 267.5659 15.08834413 96694,6917.897,95.438,540.769,538.756,0.0
53906.0,STARLINK-5054,PAYLOAD,2024-06-18 12:08:54,15.08844742,0.0001314,53.2159,258.3525,102.725,257.3889,8.1573e-06,-1.58e-06,0.0,0 STARLINK-5054,1 53906U 22119W   24170.50618935 -.00000158  00000-0  81573-5 0  9993,2 53906  53.2159 258.3525 0001314 102.7250 257.3889 15.08844742 96422,6917.866,95.437,540.64,538.822,0.0
53906.0,STARLINK-5054,PAYLOAD,2024-06-19 05:38:09,15.08835409,0.0001362,53.2157,255.0818,91.1968,268.918,0.0001003,1.309e-05,0.0,0 STARLINK-5054,1 53906U 22119W   24171.23483276  .00001309  00000-0  10030-3 0  9998,2 53906  53.2157 255.0818 0001362  91.1968 268.9180 15.08835409 96533,6917.894,95.438,540.702,538.817,0.0
53906.0,STARLINK-5054,PAYLOAD,2024-06-19 11:59:41,15.08841056,0.0001263,53.2164,253.8933,87.763,272.3507,0.00010257,1.345e-05,0.0,0 STARLINK-5054,1 53906U 22119W   24171.49978969  .00001345  00000-0  10257-3 0  9995,2 53906  53.2164 253.8933 0001263  87.7630 272.3507 15.08841056 96999,6917.877,95.437,540.616,538.868,0.0
53906.0,STARLINK-5054,PAYLOAD,2024-06-20 11:50:28,15.08842884,0.0001447,53.2181,249.433,97.951,262.1647,2.3618e-05,8.8e-07,0.0,0 STARLINK-5054,1 53906U 22119W   24172.49339083  .00000088  00000-0  23618-4 0  9993,2 53906  53.2181 249.4330 0001447  97.9510 262.1647 15.08842884 97144,6917.872,95.437,540.738,538.736,0.0
53906.0,STARLINK-5054,PAYLOAD,2024-06-20 15:01:15,15.08844573,0.0001419,53.2176,248.8376,97.5711,262.5443,3.3702e-05,2.49e-06,0.0,0 STARLINK-5054,1 53906U 22119W   24172.62586896  .00000249  00000-0  33702-4 0  9998,2 53906  53.2176 248.8376 0001419  97.5711 262.5443 15.08844573 96749,6917.866,95.437,540.713,538.75,0.0
53906.0,STARLINK-5054,PAYLOAD,2024-06-21 05:19:43,15.08837284,0.000138,53.2169,246.1594,99.3944,260.7205,-5.2773e-05,-1.128e-05,0.0,0 STARLINK-5054,1 53906U 22119W   24173.22203669 -.00001128  00000-0 -52773-4 0  9997,2 53906  53.2169 246.1594 0001380  99.3944 260.7205 15.08837284 96836,6917.889,95.438,540.708,538.799,0.0
53906.0,STARLINK-5054,PAYLOAD,2024-06-21 10:05:53,15.08838295,0.0001374,53.2169,245.2673,99.3008,260.8139,-4.2733e-05,-9.68e-06,0.0,0 STARLINK-5054,1 53906U 22119W   24173.42075573 -.00000968  00000-0 -42733-4 0  9996,2 53906  53.2169 245.2673 0001374  99.3008 260.8139 15.08838295 97288,6917.886,95.438,540.701,538.8,0.0
53906.0,STARLINK-5054,PAYLOAD,2024-06-22 11:32:03,15.08835086,0.0001381,53.2169,240.5087,99.3555,260.7593,3.2519e-06,-2.36e-06,0.0,0 STARLINK-5054,1 53906U 22119W   24174.48059928 -.00000236  00000-0  32519-5 0  9998,2 53906  53.2169 240.5087 0001381  99.3555 260.7593 15.08835086 97020,6917.895,95.438,540.716,538.805,0.0
53906.0,STARLINK-5054,PAYLOAD,2024-06-23 14:33:36,15.08840145,0.0001334,53.2169,235.456,96.2168,263.8976,8.9359e-05,1.135e-05,0.0,0 STARLINK-5054,1 53906U 22119W   24175.60667558  .00001135  00000-0  89359-4 0  9998,2 53906  53.2169 235.4560 0001334  96.2168 263.8976 15.08840145 97619,6917.88,95.438,540.668,538.822,0.0
53906.0,STARLINK-5054,PAYLOAD,2024-06-24 11:13:37,15.08843767,0.0001281,53.217,231.5898,93.261,266.8529,7.9921e-05,9.84e-06,0.0,0 STARLINK-5054,1 53906U 22119W   24176.46779352  .00000984  00000-0  79921-4 0  9994,2 53906  53.2170 231.5898 0001281  93.2610 266.8529 15.08843767 97746,6917.869,95.437,540.62,538.848,0.0
53906.0,STARLINK-5054,PAYLOAD,2024-06-25 11:04:24,15.08840748,0.0001327,53.2166,227.13,93.0063,267.1081,-1.8208e-05,-5.78e-06,0.0,0 STARLINK-5054,1 53906U 22119W   24177.46139847 -.00000578  00000-0 -18208-4 0  9996,2 53906  53.2166 227.1300 0001327  93.0063 267.1081 15.08840748 97474,6917.878,95.438,540.661,538.825,0.0
53906.0,STARLINK-5054,PAYLOAD,2024-06-26 09:19:48,15.08842299,0.0001707,53.2174,222.967,66.1914,293.9257,3.1299e-05,2.1e-06,0.0,0 STARLINK-5054,1 53906U 22119W   24178.38875636  .00000210  00000-0  31299-4 0  9997,2 53906  53.2174 222.9670 0001707  66.1914 293.9257 15.08842299 98032,6917.873,95.437,540.919,538.557,0.0
53906.0,STARLINK-5054,PAYLOAD,2024-06-27 09:10:36,15.08834235,0.0001308,53.2156,218.5074,83.2752,276.8389,-1.5691e-05,-5.38e-06,0.0,0 STARLINK-5054,1 53906U 22119W   24179.38236320 -.00000538  00000-0 -15691-4 0  9992,2 53906  53.2156 218.5074 0001308  83.2752 276.8389 15.08834235 97764,6917.898,95.438,540.668,538.858,0.0
53906.0,STARLINK-5054,PAYLOAD,2024-06-28 09:01:22,15.08844313,0.0001174,53.2148,214.0449,92.759,267.3536,5.0953e-05,5.23e-06,0.0,0 STARLINK-5054,1 53906U 22119W   24180.37595470  .00000523  00000-0  50953-4 0  9999,2 53906  53.2148 214.0449 0001174  92.7590 267.3536 15.08844313 97912,6917.867,95.437,540.544,538.92,0.0
53906.0,STARLINK-5054,PAYLOAD,2024-06-29 12:02:56,15.08837199,0.0001258,53.2152,208.9905,93.2604,266.8532,4.8685e-05,4.87e-06,0.0,0 STARLINK-5054,1 53906U 22119W   24181.50204148  .00000487  00000-0  48685-4 0  9992,2 53906  53.2152 208.9905 0001258  93.2604 266.8532 15.08837199 98084,6917.889,95.438,540.624,538.884,0.0
53906.0,STARLINK-5054,PAYLOAD,2024-06-29 18:24:29,15.08833532,0.0001286,53.2153,207.7997,94.7513,265.3626,5.935e-05,6.57e-06,0.0,0 STARLINK-5054,1 53906U 22119W   24181.76700425  .00000657  00000-0  59350-4 0  9999,2 53906  53.2153 207.7997 0001286  94.7513 265.3626 15.08833532 98545,6917.9,95.438,540.655,538.876,0.0
53906.0,STARLINK-5054,PAYLOAD,2024-06-30 02:21:25,15.08833504,0.000148,53.217,206.3139,98.0051,262.1109,-8.241e-05,-1.599e-05,0.0,0 STARLINK-5054,1 53906U 22119W   24182.09820906 -.00001599  00000-0 -82410-4 0  9994,2 53906  53.2170 206.3139 0001480  98.0051 262.1109 15.08833504 98176,6917.9,95.438,540.789,538.741,0.0
53906.0,STARLINK-5054,PAYLOAD,2024-06-30 08:42:58,15.08833795,0.0001329,53.2165,205.1255,96.9205,263.1938,-9.5486e-05,-1.807e-05,0.0,0 STARLINK-5054,1 53906U 22119W   24182.36317237 -.00001807  00000-0 -95486-4 0  9991,2 53906  53.2165 205.1255 0001329  96.9205 263.1938 15.08833795 98630,6917.899,95.438,540.684,538.845,0.0
53906.0,STARLINK-5054,PAYLOAD,2024-06-30 18:15:16,15.08832427,0.0001359,53.2159,203.3425,98.8249,261.2897,-2.9411e-05,-7.56e-06,0.0,0 STARLINK-5054,1 53906U 22119W   24182.76061275 -.00000756  00000-0 -29411-4 0  9990,2 53906  53.2159 203.3425 0001359  98.8249 261.2897 15.08832427 98694,6917.904,95.438,540.709,538.828,0.0
53906.0,STARLINK-5054,PAYLOAD,2024-07-01 08:33:45,15.08836287,0.0001347,53.2162,200.6651,94.5182,265.5964,3.374e-05,2.49e-06,0.0,0 STARLINK-5054,1 53906U 22119W   24183.35677088  .00000249  00000-0  33740-4 0  9996,2 53906  53.2162 200.6651 0001347  94.5182 265.5964 15.08836287 98369,6917.892,95.438,540.689,538.825,0.0
53906.0,STARLINK-5054,PAYLOAD,2024-07-01 18:06:03,15.08838324,0.0001355,53.2164,198.8809,92.9915,267.1232,6.4082e-05,7.32e-06,0.0,0 STARLINK-5054,1 53906U 22119W   24183.75420937  .00000732  00000-0  64082-4 0  9999,2 53906  53.2164 198.8809 0001355  92.9915 267.1232 15.08838324 98842,6917.886,95.438,540.688,538.813,0.0
53906.0,STARLINK-5054,PAYLOAD,2024-07-02 09:59:54,15.08840974,0.0001222,53.2157,195.9063,90.5698,269.5434,0.00014111,1.959e-05,0.0,0 STARLINK-5054,1 53906U 22119W   24184.41660598  .00001959  00000-0  14111-3 0  9991,2 53906  53.2157 195.9063 0001222  90.5698 269.5434 15.08840974 98528,6917.877,95.437,540.588,538.897,0.0
53906.0,STARLINK-5054,PAYLOAD,2024-07-02 17:56:50,15.08838142,0.0001203,53.2154,194.4189,85.6149,274.4981,7.4007e-05,8.9e-06,0.0,0 STARLINK-5054,1 53906U 22119W   24184.74781002  .00000890  00000-0  74007-4 0  9995,2 53906  53.2154 194.4189 0001203  85.6149 274.4981 15.08838142 98990,6917.886,95.438,540.583,538.919,0.0
53906.0,STARLINK-5054,PAYLOAD,2024-07-03 05:04:33,15.08835093,0.0001293,53.2161,192.3368,86.9866,273.1274,2.0893e-05,4.5e-07,0.0,0 STARLINK-5054,1 53906U 22119W   24185.21149451  .00000045  00000-0  20893-4 0  9990,2 53906  53.2161 192.3368 0001293  86.9866 273.1274 15.08835093 98648,6917.895,95.438,540.655,538.866,0.0
53906.0,STARLINK-5054,PAYLOAD,2024-07-03 17:47:37,15.08841214,0.0001232,53.2156,189.9587,86.6433,273.47,1.7956e-05,-2e-08,0.0,0 STARLINK-5054,1 53906U 22119W   24185.74141052 -.00000002  00000-0  17956-4 0  9997,2 53906  53.2156 189.9587 0001232  86.6433 273.4700 15.08841214 99142,6917.877,95.437,540.594,538.889,0.0
53906.0,STARLINK-5054,PAYLOAD,2024-07-04 04:55:19,15.08843692,0.0001251,53.2159,187.8775,85.938,274.1755,-1.7387e-06,-3.16e-06,0.0,0 STARLINK-5054,1 53906U 22119W   24186.20508866 -.00000316  00000-0 -17387-5 0  9997,2 53906  53.2159 187.8775 0001251  85.9380 274.1755 15.08843692 98795,6917.869,95.437,540.6,538.869,0.0
53906.0,STARLINK-5054,PAYLOAD,2024-07-04 09:41:28,15.08844821,0.0001265,53.2158,186.9858,84.9987,275.1149,1.875e-05,1.1e-07,0.0,0 STARLINK-5054,1 53906U 22119W   24186.40380671  .00000011  00000-0  18750-4 0  9995,2 53906  53.2158 186.9858 0001265  84.9987 275.1149 15.08844821 99247,6917.866,95.437,540.606,538.856,0.0
53906.0,STARLINK-5054,PAYLOAD,2024-07-04 17:38:24,15.08843401,0.0001258,53.216,185.4988,85.1324,274.9812,2.7678e-05,1.53e-06,0.0,0 STARLINK-5054,1 53906U 22119W   24186.73500615  .00000153  00000-0  27678-4 0  9999,2 53906  53.2160 185.4988 0001258  85.1324 274.9812 15.08843401 99290,6917.87,95.437,540.605,538.865,0.0
